{
  "type": "FeatureCollection",
  "features": [
    {
      "type": "Feature",
      "properties": {
        "norad_id": 66830,
        "name": "STARLINK-35881",
        "group": "last-30-days",
        "lat": 1.8387730611406106,
        "lon": 12.126982593298985,
        "alt_km": 355.0661874034686,
        "timestamp": "2025-12-14T20:40:30.516772+00:00",
        "meta_object_name": "STARLINK-35881",
        "meta_object_id": "2025-280K",
        "meta_epoch": "2025-12-14T06:00:02.999808",
        "meta_mean_motion": 15.74490634,
        "meta_eccentricity": 0.00034994,
        "meta_inclination": 69.9942,
        "meta_ra_of_asc_node": 194.5243,
        "meta_arg_of_pericenter": 270.8757,
        "meta_mean_anomaly": 45.0402,
        "meta_ephemeris_type": 0,
        "meta_classification_type": "U",
        "meta_norad_cat_id": 66830,
        "meta_element_set_no": 999,
        "meta_rev_at_epoch": 314,
        "meta_bstar": -0.013642319,
        "meta_mean_motion_dot": -0.0175328,
        "meta_mean_motion_ddot": 0,
        "tle_line1": "1 66830U 25280K   25348.25003472 -.01753280  00000+0 -13642-1 0  9999",
        "tle_line2": "2 66830  69.9942 194.5243 0003499 270.8757  45.0402 15.74490634  3149"
      },
      "geometry": {
        "type": "Point",
        "coordinates": [
          12.126982593298985,
          1.8387730611406106
        ]
      }
    },
    {
      "type": "Feature",
      "properties": {
        "norad_id": 66831,
        "name": "STARLINK-35788",
        "group": "last-30-days",
        "lat": 0.03826500366027405,
        "lon": 12.781896897771162,
        "alt_km": 355.202045758434,
        "timestamp": "2025-12-14T20:40:30.516784+00:00",
        "meta_object_name": "STARLINK-35788",
        "meta_object_id": "2025-280L",
        "meta_epoch": "2025-12-14T06:00:02.999808",
        "meta_mean_motion": 15.74500852,
        "meta_eccentricity": 0.0003633,
        "meta_inclination": 69.995,
        "meta_ra_of_asc_node": 194.5229,
        "meta_arg_of_pericenter": 270.2113,
        "meta_mean_anomaly": 47.6095,
        "meta_ephemeris_type": 0,
        "meta_classification_type": "U",
        "meta_norad_cat_id": 66831,
        "meta_element_set_no": 999,
        "meta_rev_at_epoch": 314,
        "meta_bstar": -0.013688753,
        "meta_mean_motion_dot": -0.01759352,
        "meta_mean_motion_ddot": 0,
        "tle_line1": "1 66831U 25280L   25348.25003472 -.01759352  00000+0 -13689-1 0  9997",
        "tle_line2": "2 66831  69.9950 194.5229 0003633 270.2113  47.6095 15.74500852  3143"
      },
      "geometry": {
        "type": "Point",
        "coordinates": [
          12.781896897771162,
          0.03826500366027405
        ]
      }
    },
    {
      "type": "Feature",
      "properties": {
        "norad_id": 66832,
        "name": "STARLINK-35768",
        "group": "last-30-days",
        "lat": -1.7602188003770887,
        "lon": 13.434003592156923,
        "alt_km": 355.36447720250453,
        "timestamp": "2025-12-14T20:40:30.516794+00:00",
        "meta_object_name": "STARLINK-35768",
        "meta_object_id": "2025-280M",
        "meta_epoch": "2025-12-14T06:00:02.999808",
        "meta_mean_motion": 15.74517832,
        "meta_eccentricity": 0.00036124,
        "meta_inclination": 69.994,
        "meta_ra_of_asc_node": 194.5196,
        "meta_arg_of_pericenter": 269.8577,
        "meta_mean_anomaly": 49.8655,
        "meta_ephemeris_type": 0,
        "meta_classification_type": "U",
        "meta_norad_cat_id": 66832,
        "meta_element_set_no": 999,
        "meta_rev_at_epoch": 314,
        "meta_bstar": -0.013823463,
        "meta_mean_motion_dot": -0.01775701,
        "meta_mean_motion_ddot": 0,
        "tle_line1": "1 66832U 25280M   25348.25003472 -.01775701  00000+0 -13823-1 0  9994",
        "tle_line2": "2 66832  69.9940 194.5196 0003612 269.8577  49.8655 15.74517832  3143"
      },
      "geometry": {
        "type": "Point",
        "coordinates": [
          13.434003592156923,
          -1.7602188003770887
        ]
      }
    },
    {
      "type": "Feature",
      "properties": {
        "norad_id": 66833,
        "name": "STARLINK-35858",
        "group": "last-30-days",
        "lat": -3.5569418815141973,
        "lon": 14.088716144372933,
        "alt_km": 355.5875601743892,
        "timestamp": "2025-12-14T20:40:30.516810+00:00",
        "meta_object_name": "STARLINK-35858",
        "meta_object_id": "2025-280N",
        "meta_epoch": "2025-12-14T06:00:02.999808",
        "meta_mean_motion": 15.74440089,
        "meta_eccentricity": 0.0003496,
        "meta_inclination": 69.9946,
        "meta_ra_of_asc_node": 194.518,
        "meta_arg_of_pericenter": 270.988,
        "meta_mean_anomaly": 50.7365,
        "meta_ephemeris_type": 0,
        "meta_classification_type": "U",
        "meta_norad_cat_id": 66833,
        "meta_element_set_no": 999,
        "meta_rev_at_epoch": 314,
        "meta_bstar": -0.013428229,
        "meta_mean_motion_dot": -0.01725648,
        "meta_mean_motion_ddot": 0,
        "tle_line1": "1 66833U 25280N   25348.25003472 -.01725648  00000+0 -13428-1 0  9991",
        "tle_line2": "2 66833  69.9946 194.5180 0003496 270.9880  50.7365 15.74440089  3141"
      },
      "geometry": {
        "type": "Point",
        "coordinates": [
          14.088716144372933,
          -3.5569418815141973
        ]
      }
    },
    {
      "type": "Feature",
      "properties": {
        "norad_id": 66834,
        "name": "STARLINK-35840",
        "group": "last-30-days",
        "lat": -5.356752907887939,
        "lon": 14.745780222779711,
        "alt_km": 355.64022286279305,
        "timestamp": "2025-12-14T20:40:30.516820+00:00",
        "meta_object_name": "STARLINK-35840",
        "meta_object_id": "2025-280P",
        "meta_epoch": "2025-12-14T06:00:02.999808",
        "meta_mean_motion": 15.74448892,
        "meta_eccentricity": 0.00034822,
        "meta_inclination": 69.9941,
        "meta_ra_of_asc_node": 194.515,
        "meta_arg_of_pericenter": 268.3471,
        "meta_mean_anomaly": 55.2882,
        "meta_ephemeris_type": 0,
        "meta_classification_type": "U",
        "meta_norad_cat_id": 66834,
        "meta_element_set_no": 999,
        "meta_rev_at_epoch": 314,
        "meta_bstar": -0.013502331,
        "meta_mean_motion_dot": -0.0173462,
        "meta_mean_motion_ddot": 0,
        "tle_line1": "1 66834U 25280P   25348.25003472 -.01734620  00000+0 -13502-1 0  9995",
        "tle_line2": "2 66834  69.9941 194.5150 0003482 268.3471  55.2882 15.74448892  3140"
      },
      "geometry": {
        "type": "Point",
        "coordinates": [
          14.745780222779711,
          -5.356752907887939
        ]
      }
    },
    {
      "type": "Feature",
      "properties": {
        "norad_id": 66835,
        "name": "STARLINK-35890",
        "group": "last-30-days",
        "lat": -7.145577215348768,
        "lon": 15.403707175115517,
        "alt_km": 355.87030921523365,
        "timestamp": "2025-12-14T20:40:30.516830+00:00",
        "meta_object_name": "STARLINK-35890",
        "meta_object_id": "2025-280Q",
        "meta_epoch": "2025-12-14T06:00:02.999808",
        "meta_mean_motion": 15.74415005,
        "meta_eccentricity": 0.0003717,
        "meta_inclination": 69.994,
        "meta_ra_of_asc_node": 194.5127,
        "meta_arg_of_pericenter": 270.3886,
        "meta_mean_anomaly": 55.2025,
        "meta_ephemeris_type": 0,
        "meta_classification_type": "U",
        "meta_norad_cat_id": 66835,
        "meta_element_set_no": 999,
        "meta_rev_at_epoch": 314,
        "meta_bstar": -0.013372648,
        "meta_mean_motion_dot": -0.01717894,
        "meta_mean_motion_ddot": 0,
        "tle_line1": "1 66835U 25280Q   25348.25003472 -.01717894  00000+0 -13373-1 0  9996",
        "tle_line2": "2 66835  69.9940 194.5127 0003717 270.3886  55.2025 15.74415005  3147"
      },
      "geometry": {
        "type": "Point",
        "coordinates": [
          15.403707175115517,
          -7.145577215348768
        ]
      }
    },
    {
      "type": "Feature",
      "properties": {
        "norad_id": 66836,
        "name": "STARLINK-35838",
        "group": "last-30-days",
        "lat": -8.889925463177397,
        "lon": 16.04995608212069,
        "alt_km": 356.352003449093,
        "timestamp": "2025-12-14T20:40:30.516842+00:00",
        "meta_object_name": "STARLINK-35838",
        "meta_object_id": "2025-280R",
        "meta_epoch": "2025-12-14T06:00:02.999808",
        "meta_mean_motion": 15.74393083,
        "meta_eccentricity": 0.00038254,
        "meta_inclination": 69.9936,
        "meta_ra_of_asc_node": 194.5097,
        "meta_arg_of_pericenter": 273.9059,
        "meta_mean_anomaly": 53.6515,
        "meta_ephemeris_type": 0,
        "meta_classification_type": "U",
        "meta_norad_cat_id": 66836,
        "meta_element_set_no": 999,
        "meta_rev_at_epoch": 314,
        "meta_bstar": -0.013700469,
        "meta_mean_motion_dot": -0.01753603,
        "meta_mean_motion_ddot": 0,
        "tle_line1": "1 66836U 25280R   25348.25003472 -.01753603  00000+0 -13700-1 0  9999",
        "tle_line2": "2 66836  69.9936 194.5097 0003825 273.9059  53.6515 15.74393083  3147"
      },
      "geometry": {
        "type": "Point",
        "coordinates": [
          16.04995608212069,
          -8.889925463177397
        ]
      }
    }
  ]
}